NOAA 15                 
1 25338U 98030A   24003.56546596  .00000194  00000+0  98396-4 0  9998
2 25338  98.5872  34.0135 0011413  89.3001 270.9487 14.26464920333575
DMSP 5D-3 F16 (USA 172) 
1 28054U 03048A   24003.57698787  .00000165  00000+0  11083-3 0  9997
2 28054  99.0197   8.5131 0007619 155.2271 315.3750 14.13922119 42890
NOAA 18                 
1 28654U 05018A   24003.52913992  .00000221  00000+0  14184-3 0  9993
2 28654  98.8922  81.7816 0014570 169.4153 190.7328 14.13091733959771
METEOSAT-9 (MSG-2)      
1 28912U 05049B   24001.20438603  .00000138  00000+0  00000+0 0  9993
2 28912   7.3004  62.2506 0001245 221.7264 295.7150  1.00276874 66045
EWS-G1 (GOES 13)        
1 29155U 06018A   24003.50750198 -.00000070  00000+0  00000+0 0  9997
2 29155   2.1921  87.2481 0087644 247.8910 138.1132  0.99158261 34398
DMSP 5D-3 F17 (USA 191) 
1 29522U 06050A   24003.58496371  .00000185  00000+0  11943-3 0  9997
2 29522  98.7491  17.5532 0010940  92.1159 268.1267 14.14365464885780
FENGYUN 3A              
1 32958U 08026A   24003.47579669  .00000184  00000+0  10867-3 0  9992
2 32958  98.5841 315.5896 0008480 184.0037 176.1073 14.18988028808341
FENGYUN 2E              
1 33463U 08066A   24002.85180976 -.00000187  00000+0  00000+0 0  9996
2 33463   7.1712  61.5442 0001211 282.9523 150.5558  1.00279817 55102
NOAA 19                 
1 33591U 09005A   24003.59943681  .00000201  00000+0  13255-3 0  9990
2 33591  99.0736  57.4671 0014371  42.2279 317.9997 14.12898682767980
GOES 14                 
1 35491U 09033A   24003.56245868 -.00000042  00000+0  00000+0 0  9995
2 35491   0.1108 245.1992 0000301  17.8440 293.5288  1.00272555 53130
DMSP 5D-3 F18 (USA 210) 
1 35951U 09057A   24003.54697387  .00000332  00000+0  19766-3 0  9991
2 35951  98.7941 341.3258 0010156 280.2161  79.7866 14.13954172732970
EWS-G2 (GOES 15)        
1 36411U 10008A   24002.87087175  .00000058  00000+0  00000+0 0  9996
2 36411   0.1174 267.7777 0006035 354.9026 214.2110  1.00275932 50652
COMS 1                  
1 36744U 10032A   24003.52054752 -.00000323  00000+0  00000+0 0  9996
2 36744   2.5130  86.9138 0000924 214.9042 116.4125  1.00270985 42108
FENGYUN 3B              
1 37214U 10059A   24003.62144267  .00000109  00000+0  80704-4 0  9995
2 37214  99.0720  29.2707 0021910 198.0742 272.5101 14.14425432680807
SUOMI NPP               
1 37849U 11061A   24003.54513986  .00000111  00000+0  73593-4 0  9993
2 37849  98.7258 304.0231 0001448  72.4571 287.6763 14.19537568631376
FENGYUN 2F              
1 38049U 12002A   24003.50724939 -.00000338  00000+0  00000+0 0  9990
2 38049   5.1814  74.7635 0001724  36.5974 285.8345  1.00280438 43890
METEOSAT-10 (MSG-3)     
1 38552U 12035B   24001.62505406  .00000009  00000+0  00000+0 0  9996
2 38552   2.5940  59.3141 0001071 224.7535  41.7019  1.00271818 41853
METOP-B                 
1 38771U 12049A   24003.54967444  .00000140  00000+0  83796-4 0  9995
2 38771  98.6535  64.2983 0001564 116.8018 243.3320 14.21447584586025
FENGYUN 3C              
1 39260U 13052A   24003.55639051  .00000118  00000+0  80182-4 0  9996
2 39260  98.4267  11.9773 0012236  85.6364 274.6209 14.16127111531826
METEOR-M 2              
1 40069U 14037A   24003.55063446  .00000136  00000+0  81777-4 0  9999
2 40069  98.4294   5.2733 0006792 115.1513 245.0370 14.20865865492100
HIMAWARI-8              
1 40267U 14060A   24003.52645094 -.00000253  00000+0  00000+0 0  9993
2 40267   0.0338 171.9272 0001056 115.2027 145.6979  1.00271513 33775
FENGYUN 2G              
1 40367U 14090A   24003.52826387 -.00000282  00000+0  00000+0 0  9995
2 40367   3.3650  83.4420 0000833  19.8255 289.2868  1.00276717 33015
METEOSAT-11 (MSG-4)     
1 40732U 15034A   24001.62696854  .00000083  00000+0  00000+0 0  9991
2 40732   0.9916  62.7669 0002312 223.8603  49.5256  1.00280852 31013
ELEKTRO-L 2             
1 41105U 15074A   24001.62209528 -.00000101  00000+0  00000+0 0  9990
2 41105   4.4135  81.4819 0003535 190.9678  37.8015  1.00272644 29503
HIMAWARI-9              
1 41836U 16064A   24001.82943676 -.00000257  00000+0  00000+0 0  9994
2 41836   0.0386 255.1155 0000997  47.8470 237.3597  1.00271342 26206
GOES 16                 
1 41866U 16071A   24001.61008613 -.00000231  00000+0  00000+0 0  9997
2 41866   0.0773 250.7613 0001208  63.3043 291.1054  1.00272709 26107
FENGYUN 4A              
1 41882U 16077A   24003.50016220 -.00000306  00000+0  00000+0 0  9997
2 41882   0.0514  37.1166 0005762 358.8081 351.2747  1.00265939 25946
CYGFM05                 
1 41884U 16078A   24003.13664489  .00006365  00000+0  26190-3 0  9997
2 41884  34.9543 269.3112 0011258 129.6014 230.5695 15.23399787390713
CYGFM04                 
1 41885U 16078B   24003.08724797  .00007121  00000+0  28604-3 0  9994
2 41885  34.9474 255.1665 0010235 153.1856 206.9389 15.24192887390780
CYGFM02                 
1 41886U 16078C   24003.13421909  .00006770  00000+0  27173-3 0  9999
2 41886  34.9550 257.3372 0010333 145.0290 215.1104 15.24227801390878
CYGFM01                 
1 41887U 16078D   24003.15418577  .00006326  00000+0  26229-3 0  9997
2 41887  34.9506 272.6374 0011591 128.4037 231.7720 15.23138366390653
CYGFM08                 
1 41888U 16078E   24003.13287083  .00006612  00000+0  26876-3 0  9998
2 41888  34.9471 262.3358 0010825 146.2128 213.9278 15.23806802390816
CYGFM07                 
1 41890U 16078G   24003.08769150  .00007126  00000+0  28549-3 0  9995
2 41890  34.9499 254.6905 0009824 150.7729 209.3536 15.24284095390793
CYGFM03                 
1 41891U 16078H   24003.11510974  .00006755  00000+0  27124-3 0  9993
2 41891  34.9519 255.5526 0008927 149.2566 210.8673 15.24224756390787
FENGYUN 3D              
1 43010U 17072A   24003.56930994  .00000126  00000+0  81428-4 0  9994
2 43010  98.8895 317.4670 0002534  87.6699 272.4766 14.19261905317928
NOAA 20                 
1 43013U 17073A   24003.50972711  .00000127  00000+0  81030-4 0  9995
2 43013  98.7337 303.9312 0000648  65.9251 294.1993 14.19557634317392
GOES 17                 
1 43226U 18022A   24002.64395699 -.00000071  00000+0  00000+0 0  9996
2 43226   0.0408 214.6171 0001968  56.7522 317.5548  1.00272324 21449
FENGYUN 2H              
1 43491U 18050A   24002.81930674 -.00000110  00000+0  00000+0 0  9992
2 43491   0.7116  88.3080 0000584   7.0989  20.8473  1.00273692 20450
METOP-C                 
1 43689U 18087A   24003.58762399  .00000128  00000+0  78419-4 0  9995
2 43689  98.7055  65.0981 0002609 173.0913 187.0301 14.21488841267596
GEO-KOMPSAT-2A          
1 43823U 18100A   24001.76517744 -.00000327  00000+0  00000+0 0  9999
2 43823   0.0465 143.0620 0000399 249.7528 111.8038  1.00270456 18636
METEOR-M2 2             
1 44387U 19038A   24003.52181465  .00000064  00000+0  47650-4 0  9993
2 44387  98.8051 332.3029 0002338  82.7339 277.4105 14.23838916233817
ARKTIKA-M 1             
1 47719U 21016A   24002.75971377  .00000209  00000+0  00000+0 0  9991
2 47719  63.1447 170.5479 6897979 269.1097  18.1416  2.00602640 20808
FENGYUN 3E              
1 49008U 21062A   24003.58982555  .00000021  00000+0  30504-4 0  9996
2 49008  98.7287   7.1273 0002298 125.4491 234.6900 14.19719949129494
GOES 18                 
1 51850U 22021A   24003.22173814  .00000119  00000+0  00000+0 0  9992
2 51850   0.0308 196.7644 0000425  52.4691 155.9337  1.00272205  6791
NOAA 21 (JPSS-2)        
1 54234U 22150A   24003.52644622  .00000121  00000+0  78400-4 0  9994
2 54234  98.7373 303.4993 0000763 101.8228 258.3034 14.19554314 59473
METEOSAT-12 (MTG-I1)    
1 54743U 22170C   24001.62435787 -.00000015  00000+0  00000+0 0  9999
2 54743   0.4013 348.6220 0001825 267.9533  65.3960  1.00271305  3976
METEOR-M2 3             
1 57166U 23091A   24003.55842937 -.00000005  00000+0  17145-4 0  9999
2 57166  98.7391  59.5182 0003065 242.2592 117.8276 14.23863561 27059
FENGYUN 3F              
1 57490U 23111A   24003.54977847  .00000069  00000+0  53597-4 0  9990
2 57490  98.7922  74.0622 0001111 143.1884 216.9369 14.19750331 21764
